<?xml version="1.0" encoding="UTF-8"?>
<ndm xmlns:xsi="http://www.w3.org/2001/XMLSchema-instance" xsi:noNamespaceSchemaLocation="https://sanaregistry.org/r/ndmxml_unqualified/ndmxml-2.0.0-master-2.0.xsd">
<omm id="CCSDS_OMM_VERS" version="2.0">
<header><CREATION_DATE/><ORIGINATOR/></header><body><segment><metadata><OBJECT_NAME>ONEWEB-0205</OBJECT_NAME><OBJECT_ID>2021-031S</OBJECT_ID><CENTER_NAME>EARTH</CENTER_NAME><REF_FRAME>TEME</REF_FRAME><TIME_SYSTEM>UTC</TIME_SYSTEM><MEAN_ELEMENT_THEORY>SGP4</MEAN_ELEMENT_THEORY></metadata><data><meanElements><EPOCH>2025-08-08T14:21:18.634176</EPOCH><MEAN_MOTION>13.14502769</MEAN_MOTION><ECCENTRICITY>.0001641</ECCENTRICITY><INCLINATION>87.9073</INCLINATION><RA_OF_ASC_NODE>351.9000</RA_OF_ASC_NODE><ARG_OF_PERICENTER>101.5884</ARG_OF_PERICENTER><MEAN_ANOMALY>258.5430</MEAN_ANOMALY></meanElements><tleParameters><EPHEMERIS_TYPE>0</EPHEMERIS_TYPE><CLASSIFICATION_TYPE>U</CLASSIFICATION_TYPE><NORAD_CAT_ID>48226</NORAD_CAT_ID><ELEMENT_SET_NO>999</ELEMENT_SET_NO><REV_AT_EPOCH>20720</REV_AT_EPOCH><BSTAR>.42367E-3</BSTAR><MEAN_MOTION_DOT>.17E-5</MEAN_MOTION_DOT><MEAN_MOTION_DDOT>0</MEAN_MOTION_DDOT></tleParameters></data></segment></body></omm>
<omm id="CCSDS_OMM_VERS" version="2.0">
<header><CREATION_DATE/><ORIGINATOR/></header><body><segment><metadata><OBJECT_NAME>ONEWEB-0206</OBJECT_NAME><OBJECT_ID>2021-031T</OBJECT_ID><CENTER_NAME>EARTH</CENTER_NAME><REF_FRAME>TEME</REF_FRAME><TIME_SYSTEM>UTC</TIME_SYSTEM><MEAN_ELEMENT_THEORY>SGP4</MEAN_ELEMENT_THEORY></metadata><data><meanElements><EPOCH>2025-08-08T04:34:25.363776</EPOCH><MEAN_MOTION>13.14502092</MEAN_MOTION><ECCENTRICITY>.0001786</ECCENTRICITY><INCLINATION>87.9074</INCLINATION><RA_OF_ASC_NODE>351.9611</RA_OF_ASC_NODE><ARG_OF_PERICENTER>100.8256</ARG_OF_PERICENTER><MEAN_ANOMALY>259.3074</MEAN_ANOMALY></meanElements><tleParameters><EPHEMERIS_TYPE>0</EPHEMERIS_TYPE><CLASSIFICATION_TYPE>U</CLASSIFICATION_TYPE><NORAD_CAT_ID>48227</NORAD_CAT_ID><ELEMENT_SET_NO>999</ELEMENT_SET_NO><REV_AT_EPOCH>20710</REV_AT_EPOCH><BSTAR>-.26299E-3</BSTAR><MEAN_MOTION_DOT>-.85E-6</MEAN_MOTION_DOT><MEAN_MOTION_DDOT>0</MEAN_MOTION_DDOT></tleParameters></data></segment></body></omm>
<omm id="CCSDS_OMM_VERS" version="2.0">
<header><CREATION_DATE/><ORIGINATOR/></header><body><segment><metadata><OBJECT_NAME>ONEWEB-0182</OBJECT_NAME><OBJECT_ID>2021-031U</OBJECT_ID><CENTER_NAME>EARTH</CENTER_NAME><REF_FRAME>TEME</REF_FRAME><TIME_SYSTEM>UTC</TIME_SYSTEM><MEAN_ELEMENT_THEORY>SGP4</MEAN_ELEMENT_THEORY></metadata><data><meanElements><EPOCH>2025-08-08T08:06:49.456224</EPOCH><MEAN_MOTION>13.14503646</MEAN_MOTION><ECCENTRICITY>.000192</ECCENTRICITY><INCLINATION>87.9071</INCLINATION><RA_OF_ASC_NODE>351.9764</RA_OF_ASC_NODE><ARG_OF_PERICENTER>104.4868</ARG_OF_PERICENTER><MEAN_ANOMALY>255.6475</MEAN_ANOMALY></meanElements><tleParameters><EPHEMERIS_TYPE>0</EPHEMERIS_TYPE><CLASSIFICATION_TYPE>U</CLASSIFICATION_TYPE><NORAD_CAT_ID>48228</NORAD_CAT_ID><ELEMENT_SET_NO>999</ELEMENT_SET_NO><REV_AT_EPOCH>20733</REV_AT_EPOCH><BSTAR>.27248E-3</BSTAR><MEAN_MOTION_DOT>.114E-5</MEAN_MOTION_DOT><MEAN_MOTION_DDOT>0</MEAN_MOTION_DDOT></tleParameters></data></segment></body></omm>
<omm id="CCSDS_OMM_VERS" version="2.0">
<header><CREATION_DATE/><ORIGINATOR/></header><body><segment><metadata><OBJECT_NAME>ONEWEB-0186</OBJECT_NAME><OBJECT_ID>2021-031V</OBJECT_ID><CENTER_NAME>EARTH</CENTER_NAME><REF_FRAME>TEME</REF_FRAME><TIME_SYSTEM>UTC</TIME_SYSTEM><MEAN_ELEMENT_THEORY>SGP4</MEAN_ELEMENT_THEORY></metadata><data><meanElements><EPOCH>2025-08-08T08:22:48.148896</EPOCH><MEAN_MOTION>13.14502030</MEAN_MOTION><ECCENTRICITY>.0001733</ECCENTRICITY><INCLINATION>87.9077</INCLINATION><RA_OF_ASC_NODE>351.9353</RA_OF_ASC_NODE><ARG_OF_PERICENTER>98.6658</ARG_OF_PERICENTER><MEAN_ANOMALY>261.4668</MEAN_ANOMALY></meanElements><tleParameters><EPHEMERIS_TYPE>0</EPHEMERIS_TYPE><CLASSIFICATION_TYPE>U</CLASSIFICATION_TYPE><NORAD_CAT_ID>48229</NORAD_CAT_ID><ELEMENT_SET_NO>999</ELEMENT_SET_NO><REV_AT_EPOCH>20728</REV_AT_EPOCH><BSTAR>.50113E-3</BSTAR><MEAN_MOTION_DOT>.199E-5</MEAN_MOTION_DOT><MEAN_MOTION_DDOT>0</MEAN_MOTION_DDOT></tleParameters></data></segment></body></omm>
<omm id="CCSDS_OMM_VERS" version="2.0">
<header><CREATION_DATE/><ORIGINATOR/></header><body><segment><metadata><OBJECT_NAME>ONEWEB-0181</OBJECT_NAME><OBJECT_ID>2021-031W</OBJECT_ID><CENTER_NAME>EARTH</CENTER_NAME><REF_FRAME>TEME</REF_FRAME><TIME_SYSTEM>UTC</TIME_SYSTEM><MEAN_ELEMENT_THEORY>SGP4</MEAN_ELEMENT_THEORY></metadata><data><meanElements><EPOCH>2025-08-08T15:09:14.638752</EPOCH><MEAN_MOTION>13.14501075</MEAN_MOTION><ECCENTRICITY>.000167</ECCENTRICITY><INCLINATION>87.9080</INCLINATION><RA_OF_ASC_NODE>351.9517</RA_OF_ASC_NODE><ARG_OF_PERICENTER>94.4936</ARG_OF_PERICENTER><MEAN_ANOMALY>265.6385</MEAN_ANOMALY></meanElements><tleParameters><EPHEMERIS_TYPE>0</EPHEMERIS_TYPE><CLASSIFICATION_TYPE>U</CLASSIFICATION_TYPE><NORAD_CAT_ID>48230</NORAD_CAT_ID><ELEMENT_SET_NO>999</ELEMENT_SET_NO><REV_AT_EPOCH>20717</REV_AT_EPOCH><BSTAR>-.45796E-3</BSTAR><MEAN_MOTION_DOT>-.157E-5</MEAN_MOTION_DOT><MEAN_MOTION_DDOT>0</MEAN_MOTION_DDOT></tleParameters></data></segment></body></omm>
<omm id="CCSDS_OMM_VERS" version="2.0">
<header><CREATION_DATE/><ORIGINATOR/></header><body><segment><metadata><OBJECT_NAME>ONEWEB-0188</OBJECT_NAME><OBJECT_ID>2021-031X</OBJECT_ID><CENTER_NAME>EARTH</CENTER_NAME><REF_FRAME>TEME</REF_FRAME><TIME_SYSTEM>UTC</TIME_SYSTEM><MEAN_ELEMENT_THEORY>SGP4</MEAN_ELEMENT_THEORY></metadata><data><meanElements><EPOCH>2025-08-08T14:14:26.651328</EPOCH><MEAN_MOTION>13.14504983</MEAN_MOTION><ECCENTRICITY>.0001791</ECCENTRICITY><INCLINATION>87.9081</INCLINATION><RA_OF_ASC_NODE>351.9502</RA_OF_ASC_NODE><ARG_OF_PERICENTER>99.2263</ARG_OF_PERICENTER><MEAN_ANOMALY>260.9069</MEAN_ANOMALY></meanElements><tleParameters><EPHEMERIS_TYPE>0</EPHEMERIS_TYPE><CLASSIFICATION_TYPE>U</CLASSIFICATION_TYPE><NORAD_CAT_ID>48231</NORAD_CAT_ID><ELEMENT_SET_NO>999</ELEMENT_SET_NO><REV_AT_EPOCH>20707</REV_AT_EPOCH><BSTAR>.76781E-3</BSTAR><MEAN_MOTION_DOT>.297E-5</MEAN_MOTION_DOT><MEAN_MOTION_DDOT>0</MEAN_MOTION_DDOT></tleParameters></data></segment></body></omm>
<omm id="CCSDS_OMM_VERS" version="2.0">
<header><CREATION_DATE/><ORIGINATOR/></header><body><segment><metadata><OBJECT_NAME>ONEWEB-0220</OBJECT_NAME><OBJECT_ID>2021-031Y</OBJECT_ID><CENTER_NAME>EARTH</CENTER_NAME><REF_FRAME>TEME</REF_FRAME><TIME_SYSTEM>UTC</TIME_SYSTEM><MEAN_ELEMENT_THEORY>SGP4</MEAN_ELEMENT_THEORY></metadata><data><meanElements><EPOCH>2025-08-08T15:11:33.080064</EPOCH><MEAN_MOTION>13.14503202</MEAN_MOTION><ECCENTRICITY>.0001642</ECCENTRICITY><INCLINATION>87.9072</INCLINATION><RA_OF_ASC_NODE>351.8820</RA_OF_ASC_NODE><ARG_OF_PERICENTER>103.8815</ARG_OF_PERICENTER><MEAN_ANOMALY>256.2498</MEAN_ANOMALY></meanElements><tleParameters><EPHEMERIS_TYPE>0</EPHEMERIS_TYPE><CLASSIFICATION_TYPE>U</CLASSIFICATION_TYPE><NORAD_CAT_ID>48232</NORAD_CAT_ID><ELEMENT_SET_NO>999</ELEMENT_SET_NO><REV_AT_EPOCH>20734</REV_AT_EPOCH><BSTAR>-.34302E-3</BSTAR><MEAN_MOTION_DOT>-.114E-5</MEAN_MOTION_DOT><MEAN_MOTION_DDOT>0</MEAN_MOTION_DDOT></tleParameters></data></segment></body></omm>
<omm id="CCSDS_OMM_VERS" version="2.0">
<header><CREATION_DATE/><ORIGINATOR/></header><body><segment><metadata><OBJECT_NAME>ONEWEB-0165</OBJECT_NAME><OBJECT_ID>2021-031Z</OBJECT_ID><CENTER_NAME>EARTH</CENTER_NAME><REF_FRAME>TEME</REF_FRAME><TIME_SYSTEM>UTC</TIME_SYSTEM><MEAN_ELEMENT_THEORY>SGP4</MEAN_ELEMENT_THEORY></metadata><data><meanElements><EPOCH>2025-08-07T19:46:56.756064</EPOCH><MEAN_MOTION>13.14502261</MEAN_MOTION><ECCENTRICITY>.000159</ECCENTRICITY><INCLINATION>87.9070</INCLINATION><RA_OF_ASC_NODE>352.0866</RA_OF_ASC_NODE><ARG_OF_PERICENTER>101.0379</ARG_OF_PERICENTER><MEAN_ANOMALY>259.0929</MEAN_ANOMALY></meanElements><tleParameters><EPHEMERIS_TYPE>0</EPHEMERIS_TYPE><CLASSIFICATION_TYPE>U</CLASSIFICATION_TYPE><NORAD_CAT_ID>48233</NORAD_CAT_ID><ELEMENT_SET_NO>999</ELEMENT_SET_NO><REV_AT_EPOCH>20719</REV_AT_EPOCH><BSTAR>.52235E-3</BSTAR><MEAN_MOTION_DOT>.206E-5</MEAN_MOTION_DOT><MEAN_MOTION_DDOT>0</MEAN_MOTION_DDOT></tleParameters></data></segment></body></omm>

</ndm>
