ONEWEB-0205             
1 48226U 21031S   25220.59813234  .00000170  00000+0  42367-3 0  9997
2 48226  87.9073 351.9000 0001641 101.5884 258.5430 13.14502769207201
ONEWEB-0206             
1 48227U 21031T   25220.19057134 -.00000085  00000+0 -26299-3 0  9996
2 48227  87.9074 351.9611 0001786 100.8256 259.3074 13.14502092207107
ONEWEB-0182             
1 48228U 21031U   25220.33807241  .00000114  00000+0  27248-3 0  9991
2 48228  87.9071 351.9764 0001920 104.4868 255.6475 13.14503646207338
ONEWEB-0186             
1 48229U 21031V   25220.34916839  .00000199  00000+0  50113-3 0  9997
2 48229  87.9077 351.9353 0001733  98.6658 261.4668 13.14502030207281
ONEWEB-0181             
1 48230U 21031W   25220.63141943 -.00000157  00000+0 -45796-3 0  9994
2 48230  87.9080 351.9517 0001670  94.4936 265.6385 13.14501075207170
ONEWEB-0188             
1 48231U 21031X   25220.59336402  .00000297  00000+0  76781-3 0  9997
2 48231  87.9081 351.9502 0001791  99.2263 260.9069 13.14504983207073
ONEWEB-0220             
1 48232U 21031Y   25220.63302176 -.00000114  00000+0 -34302-3 0  9997
2 48232  87.9072 351.8820 0001642 103.8815 256.2498 13.14503202207343
ONEWEB-0165             
1 48233U 21031Z   25219.82426801  .00000206  00000+0  52235-3 0  9994
2 48233  87.9070 352.0866 0001590 101.0379 259.0929 13.14502261207199
